{
  "type": "FeatureCollection",
  "features": [
    {
      "type": "Feature",
      "properties": {
        "norad_id": 40236,
        "name": "COSMOS 2251 DEB",
        "group": "cosmos-2251-debris",
        "lat": 49.57439820465677,
        "lon": 167.87893936272076,
        "alt_km": 790.1706041669713,
        "timestamp": "2025-12-10T07:43:55.177563+00:00",
        "meta_object_name": "COSMOS 2251 DEB",
        "meta_object_id": "1993-036BVR",
        "meta_epoch": "2025-12-07T17:52:23.026080",
        "meta_mean_motion": 13.24639967,
        "meta_eccentricity": 0.05366128,
        "meta_inclination": 73.5349,
        "meta_ra_of_asc_node": 151.6266,
        "meta_arg_of_pericenter": 32.3576,
        "meta_mean_anomaly": 330.9258,
        "meta_ephemeris_type": 0,
        "meta_classification_type": "U",
        "meta_norad_cat_id": 40236,
        "meta_element_set_no": 999,
        "meta_rev_at_epoch": 53558,
        "meta_bstar": 0.0015786255,
        "meta_mean_motion_dot": 1.455e-05,
        "meta_mean_motion_ddot": 0,
        "tle_line1": "1 40236U 93036BVR 25341.74471095  .00001455  00000+0  15786-2 0  9991",
        "tle_line2": "2 40236  73.5349 151.6266 0536612  32.3576 330.9258 13.24639967535580"
      },
      "geometry": {
        "type": "Point",
        "coordinates": [
          167.87893936272076,
          49.57439820465677
        ]
      }
    },
    {
      "type": "Feature",
      "properties": {
        "norad_id": 40238,
        "name": "COSMOS 2251 DEB",
        "group": "cosmos-2251-debris",
        "lat": 30.853666898577362,
        "lon": -122.56324672581934,
        "alt_km": 1269.5500888280903,
        "timestamp": "2025-12-10T07:43:55.177573+00:00",
        "meta_object_name": "COSMOS 2251 DEB",
        "meta_object_id": "1993-036BVT",
        "meta_epoch": "2025-12-04T13:20:38.533056",
        "meta_mean_motion": 13.25091202,
        "meta_eccentricity": 0.0549745,
        "meta_inclination": 73.9885,
        "meta_ra_of_asc_node": 76.1652,
        "meta_arg_of_pericenter": 49.7266,
        "meta_mean_anomaly": 315.0566,
        "meta_ephemeris_type": 0,
        "meta_classification_type": "U",
        "meta_norad_cat_id": 40238,
        "meta_element_set_no": 999,
        "meta_rev_at_epoch": 53928,
        "meta_bstar": 0.0023519,
        "meta_mean_motion_dot": 2.29e-05,
        "meta_mean_motion_ddot": 0,
        "tle_line1": "1 40238U 93036BVT 25338.55600154  .00002290  00000+0  23519-2 0  9999",
        "tle_line2": "2 40238  73.9885  76.1652 0549745  49.7266 315.0566 13.25091202539282"
      },
      "geometry": {
        "type": "Point",
        "coordinates": [
          -122.56324672581934,
          30.853666898577362
        ]
      }
    },
    {
      "type": "Feature",
      "properties": {
        "norad_id": 40239,
        "name": "COSMOS 2251 DEB",
        "group": "cosmos-2251-debris",
        "lat": -19.016210785436805,
        "lon": 106.12884587745774,
        "alt_km": 749.8746094420048,
        "timestamp": "2025-12-10T07:43:55.177583+00:00",
        "meta_object_name": "COSMOS 2251 DEB",
        "meta_object_id": "1993-036BVU",
        "meta_epoch": "2025-12-09T02:58:33.046176",
        "meta_mean_motion": 14.61966821,
        "meta_eccentricity": 0.00846673,
        "meta_inclination": 74.0321,
        "meta_ra_of_asc_node": 282.759,
        "meta_arg_of_pericenter": 35.0564,
        "meta_mean_anomaly": 340.9261,
        "meta_ephemeris_type": 0,
        "meta_classification_type": "U",
        "meta_norad_cat_id": 40239,
        "meta_element_set_no": 999,
        "meta_rev_at_epoch": 59558,
        "meta_bstar": 0.00063514964,
        "meta_mean_motion_dot": 3.319e-05,
        "meta_mean_motion_ddot": 0,
        "tle_line1": "1 40239U 93036BVU 25343.12399359  .00003319  00000+0  63515-3 0  9995",
        "tle_line2": "2 40239  74.0321 282.7590 0084667  35.0564 340.9261 14.61966821595585"
      },
      "geometry": {
        "type": "Point",
        "coordinates": [
          106.12884587745774,
          -19.016210785436805
        ]
      }
    },
    {
      "type": "Feature",
      "properties": {
        "norad_id": 40792,
        "name": "COSMOS 2251 DEB",
        "group": "cosmos-2251-debris",
        "lat": -42.86633197772146,
        "lon": 36.729731639941846,
        "alt_km": 685.4750349568812,
        "timestamp": "2025-12-10T07:43:55.177593+00:00",
        "meta_object_name": "COSMOS 2251 DEB",
        "meta_object_id": "1993-036BVV",
        "meta_epoch": "2025-12-08T11:49:11.388288",
        "meta_mean_motion": 14.67495133,
        "meta_eccentricity": 0.00157828,
        "meta_inclination": 74.0463,
        "meta_ra_of_asc_node": 55.6567,
        "meta_arg_of_pericenter": 162.447,
        "meta_mean_anomaly": 210.2984,
        "meta_ephemeris_type": 0,
        "meta_classification_type": "U",
        "meta_norad_cat_id": 40792,
        "meta_element_set_no": 999,
        "meta_rev_at_epoch": 63122,
        "meta_bstar": 0.0015277322,
        "meta_mean_motion_dot": 8.654e-05,
        "meta_mean_motion_ddot": 0,
        "tle_line1": "1 40792U 93036BVV 25342.49249292  .00008654  00000+0  15277-2 0  9996",
        "tle_line2": "2 40792  74.0463  55.6567 0015782 162.4470 210.2984 14.67495133631222"
      },
      "geometry": {
        "type": "Point",
        "coordinates": [
          36.729731639941846,
          -42.86633197772146
        ]
      }
    },
    {
      "type": "Feature",
      "properties": {
        "norad_id": 40793,
        "name": "COSMOS 2251 DEB",
        "group": "cosmos-2251-debris",
        "lat": 73.94544949159844,
        "lon": -97.39719186856564,
        "alt_km": 953.4736152095329,
        "timestamp": "2025-12-10T07:43:55.177603+00:00",
        "meta_object_name": "COSMOS 2251 DEB",
        "meta_object_id": "1993-036BVW",
        "meta_epoch": "2025-11-17T22:59:08.433600",
        "meta_mean_motion": 14.0559149,
        "meta_eccentricity": 0.02150611,
        "meta_inclination": 73.9793,
        "meta_ra_of_asc_node": 208.5839,
        "meta_arg_of_pericenter": 10.058,
        "meta_mean_anomaly": 350.4754,
        "meta_ephemeris_type": 0,
        "meta_classification_type": "U",
        "meta_norad_cat_id": 40793,
        "meta_element_set_no": 999,
        "meta_rev_at_epoch": 67897,
        "meta_bstar": 0.0015211732,
        "meta_mean_motion_dot": 3.024e-05,
        "meta_mean_motion_ddot": 0,
        "tle_line1": "1 40793U 93036BVW 25321.95773650  .00003024  00000+0  15212-2 0  9990",
        "tle_line2": "2 40793  73.9793 208.5839 0215061  10.0580 350.4754 14.05591490678970"
      },
      "geometry": {
        "type": "Point",
        "coordinates": [
          -97.39719186856564,
          73.94544949159844
        ]
      }
    },
    {
      "type": "Feature",
      "properties": {
        "norad_id": 40794,
        "name": "COSMOS 2251 DEB",
        "group": "cosmos-2251-debris",
        "lat": 50.86234097163158,
        "lon": -71.55375911337636,
        "alt_km": 589.0555169464305,
        "timestamp": "2025-12-10T07:43:55.177613+00:00",
        "meta_object_name": "COSMOS 2251 DEB",
        "meta_object_id": "1993-036BVX",
        "meta_epoch": "2025-11-30T04:39:36.279360",
        "meta_mean_motion": 14.91253423,
        "meta_eccentricity": 0.00103638,
        "meta_inclination": 73.9758,
        "meta_ra_of_asc_node": 149.5129,
        "meta_arg_of_pericenter": 264.0956,
        "meta_mean_anomaly": 215.1976,
        "meta_ephemeris_type": 0,
        "meta_classification_type": "U",
        "meta_norad_cat_id": 40794,
        "meta_element_set_no": 999,
        "meta_rev_at_epoch": 61737,
        "meta_bstar": 0.0047311798,
        "meta_mean_motion_dot": 0.00047418,
        "meta_mean_motion_ddot": 0,
        "tle_line1": "1 40794U 93036BVX 25334.19416990  .00047418  00000+0  47312-2 0  9993",
        "tle_line2": "2 40794  73.9758 149.5129 0010363 264.0956 215.1976 14.91253423617370"
      },
      "geometry": {
        "type": "Point",
        "coordinates": [
          -71.55375911337636,
          50.86234097163158
        ]
      }
    },
    {
      "type": "Feature",
      "properties": {
        "norad_id": 40796,
        "name": "COSMOS 2251 DEB",
        "group": "cosmos-2251-debris",
        "lat": -74.00135792709274,
        "lon": 57.339762564323166,
        "alt_km": 592.9055517186025,
        "timestamp": "2025-12-10T07:43:55.177623+00:00",
        "meta_object_name": "COSMOS 2251 DEB",
        "meta_object_id": "1993-036BVZ",
        "meta_epoch": "2025-12-09T17:37:53.182848",
        "meta_mean_motion": 14.81629743,
        "meta_eccentricity": 0.0056162,
        "meta_inclination": 74.0119,
        "meta_ra_of_asc_node": 148.1325,
        "meta_arg_of_pericenter": 285.276,
        "meta_mean_anomaly": 92.5072,
        "meta_ephemeris_type": 0,
        "meta_classification_type": "U",
        "meta_norad_cat_id": 40796,
        "meta_element_set_no": 999,
        "meta_rev_at_epoch": 76114,
        "meta_bstar": 0.0013806,
        "meta_mean_motion_dot": 0.00011141,
        "meta_mean_motion_ddot": 0,
        "tle_line1": "1 40796U 93036BVZ 25343.73464332  .00011141  00000+0  13806-2 0  9993",
        "tle_line2": "2 40796  74.0119 148.1325 0056162 285.2760  92.5072 14.81629743761143"
      },
      "geometry": {
        "type": "Point",
        "coordinates": [
          57.339762564323166,
          -74.00135792709274
        ]
      }
    }
  ]
}